CRE-(WAAS/PRN-138)------
1 28868U 05036A   21277.15875166 -.00000077  00000-0  00000+0 0  9998
2 28868   0.0417  63.6271 0000560 148.5755 110.7145  1.00271658 58942
IOR-W-(EGNOS/PRN-126)---
1 28899U 05044A   21276.77618904  .00000010  00000-0  00000-0 0  9990
2 28899   3.3126  34.8014 0002716 168.2116 153.0259  1.00272761 58299
QZS-1-(QZSS/PRN-183)----
1 37158U 10045A   21276.49597970 -.00000105  00000-0  00000+0 0  9998
2 37158  42.0651 136.9566 0747167 270.2235 283.9258  1.00294589 40495
GSAT-8-(GAGAN/PRN-127)--
1 37605U 11022A   21277.03868626  .00000082  00000-0  00000+0 0  9994
2 37605   0.0328 105.5407 0005875 148.6185 187.8143  1.00272759 38024
LUCH-5A-(SDCM/PRN-140)--
1 37951U 11074B   21276.90244623 -.00000046  00000-0  00000-0 0  9997
2 37951   4.3753 102.9232 0003176  53.4131 348.3208  1.00270792 35972
SES-5-(EGNOS/PRN-136)---
1 38652U 12036A   21276.93930509  .00000031  00000-0  00000-0 0  9996
2 38652   0.0602 292.0918 0001917 258.9403 164.9737  1.00271680 27274
GSAT-10-(GAGAN/PRN-128)-
1 38779U 12051B   21276.91298917 -.00000168  00000-0  00000-0 0  9993
2 38779   0.0091 202.4797 0002279  19.3116 202.7264  1.00269658 32889
LUCH-5B-(SDCM/PRN-125)--
1 38977U 12061A   21276.72242797 -.00000131  00000-0  00000-0 0  9998
2 38977   6.7376  64.4478 0003814  98.2456  93.7587  1.00272367 32954
ASTRA-5B-(EGNOS/PRN-123)
1 39617U 14011B   21277.10466105  .00000152  00000-0  00000+0 0  9992
2 39617   0.0094  70.2259 0003631 124.6708 247.3006  1.00269619 27653
LUCH-5V-(SDCM/PRN-141)--
1 39727U 14023A   21276.88814247 -.00000271  00000-0  00000-0 0  9999
2 39727   0.9114  66.4505 0002133 120.9883 239.8369  1.00274809 27135
GSAT-15-(GAGAN/PRN-139)-
1 41028U 15065A   21276.88788080 -.00000261  00000-0  00000-0 0  9997
2 41028   0.0401  93.9524 0002306  79.8951 252.1108  1.00270539 21586
E-117-W-B-(WAAS/PRN-131)
1 41589U 16038B   21276.60541160 -.00000014  00000-0  00000-0 0  9992
2 41589   0.0311  39.0979 0000346  63.0283  11.3495  1.00270004 19452
SES-15-(WAAS/PRN-133)---
1 42709U 17026A   21277.17887602  .00000057  00000-0  00000+0 0  9997
2 42709   0.0105 252.9163 0001108 298.5302 116.9070  1.00270252 16962
QZS-2-(QZSS/PRN-184)----
1 42738U 17028A   21276.31834344 -.00000149  00000-0  00000-0 0  9995
2 42738  42.2063 267.7971 0749040 270.4019  88.0367  1.00258541 15924
QZS-3-(QZSS/PRN-189)----
1 42917U 17048A   21276.89450938 -.00000351  00000-0  00000-0 0  9997
2 42917   0.0581 161.1920 0002561  42.9988 257.7182  1.00273667 15036
QZS-4-(QZSS/PRN-185)----
1 42965U 17062A   21276.55466038 -.00000295  00000-0  00000-0 0  9994
2 42965  40.8147   5.4321 0748434 269.7662  76.5477  1.00275859 14586
